NORAD_CAT_ID,OBJECT_NAME,OBJECT_TYPE,EPOCH,MEAN_MOTION,ECCENTRICITY,INCLINATION,RA_OF_ASC_NODE,ARG_OF_PERICENTER,MEAN_ANOMALY,BSTAR,MEAN_MOTION_DOT,MEAN_MOTION_DDOT,TLE_LINE0,TLE_LINE1,TLE_LINE2,SEMIMAJOR_AXIS,PERIOD,APOGEE,PERIGEE,DECAYED
53891.0,STARLINK-5041,PAYLOAD,2022-12-18 08:08:34,15.08824982,0.0001957,53.2162,209.5176,51.898,308.2188,-4.9576e-05,-1.077e-05,0.0,0 STARLINK-5041,1 53891U 22119F   22352.33928551 -.00001077  00000-0 -49576-4 0  9993,2 53891  53.2162 209.5176 0001957  51.8980 308.2188 15.08824982 13944,6917.926,95.439,541.145,538.437,0.0
53891.0,STARLINK-5041,PAYLOAD,2022-12-18 20:51:39,15.08828915,0.000202,53.2163,207.1385,53.4519,306.6659,-6.671800000000001e-05,-1.35e-05,0.0,0 STARLINK-5041,1 53891U 22119F   22352.86920784 -.00001350  00000-0 -66718-4 0  9992,2 53891  53.2163 207.1385 0002020  53.4519 306.6659 15.08828915 14024,6917.9140000000025,95.438,541.177,538.382,0.0
53891.0,STARLINK-5041,PAYLOAD,2022-12-19 07:59:21,15.08830224,0.0001953,53.2164,205.0567,53.4173,306.6999,2.9439e-05,1.8e-06,0.0,0 STARLINK-5041,1 53891U 22119F   22353.33288630  .00000180  00000-0  29439-4 0  9999,2 53891  53.2164 205.0567 0001953  53.4173 306.6999 15.08830224 13677,6917.91,95.438,541.126,538.424,0.0
53891.0,STARLINK-5041,PAYLOAD,2022-12-19 20:42:25,15.08846838,0.0002043,53.2164,202.6778,53.166,306.9519,-5.6407e-05,-1.186e-05,0.0,0 STARLINK-5041,1 53891U 22119F   22353.86279982 -.00001186  00000-0 -56407-4 0  9991,2 53891  53.2164 202.6778 0002043  53.1660 306.9519 15.08846838 14178,6917.859,95.437,541.138,538.311,0.0
53891.0,STARLINK-5041,PAYLOAD,2022-12-19 22:17:49,15.08847677,0.0001995,53.2164,202.3806,57.1103,303.0081,-4.5831e-05,-1.018e-05,0.0,0 STARLINK-5041,1 53891U 22119F   22353.92903993 -.00001018  00000-0 -45831-4 0  9997,2 53891  53.2164 202.3806 0001995  57.1103 303.0081 15.08847677 13766,6917.857,95.437,541.102,538.342,0.0
53891.0,STARLINK-5041,PAYLOAD,2022-12-20 14:11:41,15.08831149,0.0002086,53.2163,199.4073,55.6065,304.5124,7.3948e-05,8.89e-06,0.0,0 STARLINK-5041,1 53891U 22119F   22354.59144894  .00000889  00000-0  73948-4 0  9991,2 53891  53.2163 199.4073 0002086  55.6065 304.5124 15.08831149 13861,6917.906999999997,95.438,541.216,538.3290000000002,0.0
53891.0,STARLINK-5041,PAYLOAD,2022-12-21 12:27:04,15.08845388,0.0002121,53.2163,195.2441,56.7586,303.3609,5.370100000000001e-05,5.67e-06,0.0,0 STARLINK-5041,1 53891U 22119F   22355.51880137  .00000567  00000-0  53701-4 0  9999,2 53891  53.2163 195.2441 0002121  56.7586 303.3609 15.08845388 14422,6917.864000000001,95.437,541.196,538.262,0.0
53891.0,STARLINK-5041,PAYLOAD,2022-12-21 14:02:27,15.08844901,0.0002113,53.2162,194.9466,57.0014,303.1181,4.9232e-05,4.95e-06,0.0,0 STARLINK-5041,1 53891U 22119F   22355.58504154  .00000495  00000-0  49232-4 0  9992,2 53891  53.2162 194.9466 0002113  57.0014 303.1181 15.08844901 14013,6917.865,95.437,541.192,538.269,0.0
53891.0,STARLINK-5041,PAYLOAD,2022-12-22 05:56:19,15.08838854,0.0002095,53.2163,191.9729,60.4957,299.6244,-4.4195e-05,-9.92e-06,0.0,0 STARLINK-5041,1 53891U 22119F   22356.24744524 -.00000992  00000-0 -44195-4 0  9990,2 53891  53.2163 191.9729 0002095  60.4957 299.6244 15.08838854 14116,6917.884,95.438,541.198,538.3,0.0
53891.0,STARLINK-5041,PAYLOAD,2022-12-22 17:04:01,15.08840272,0.0001973,53.2165,189.8912,63.1609,296.9585,-2.2854e-05,-6.52e-06,0.0,0 STARLINK-5041,1 53891U 22119F   22356.71112315 -.00000652  00000-0 -22854-4 0  9990,2 53891  53.2165 189.8912 0001973  63.1609 296.9585 15.08840272 14605,6917.88,95.438,541.109,538.38,0.0
53891.0,STARLINK-5041,PAYLOAD,2022-12-23 05:47:06,15.08840298,0.0001977,53.2164,187.5124,63.3866,296.7328,-2.7249e-05,-7.22e-06,0.0,0 STARLINK-5041,1 53891U 22119F   22357.24104247 -.00000722  00000-0 -27249-4 0  9995,2 53891  53.2164 187.5124 0001977  63.3866 296.7328 15.08840298 14684,6917.879,95.438,541.112,538.377,0.0
53891.0,STARLINK-5041,PAYLOAD,2022-12-23 23:16:19,15.08848426,0.0001988,53.2163,184.241,62.0939,298.0255,-1.3377e-05,-5.01e-06,0.0,0 STARLINK-5041,1 53891U 22119F   22357.96967391 -.00000501  00000-0 -13377-4 0  9993,2 53891  53.2163 184.2410 0001988  62.0939 298.0255 15.08848426 14375,6917.855,95.437,541.095,538.344,0.0
53891.0,STARLINK-5041,PAYLOAD,2022-12-24 11:59:24,15.08841969,0.0001936,53.216,181.8623,64.9958,295.1235,5.1512e-05,5.32e-06,0.0,0 STARLINK-5041,1 53891U 22119F   22358.49959334  .00000532  00000-0  51512-4 0  9995,2 53891  53.2160 181.8623 0001936  64.9958 295.1235 15.08841969 14872,6917.874,95.437,541.0790000000002,538.4,0.0
53891.0,STARLINK-5041,PAYLOAD,2022-12-24 18:20:57,15.08836317,0.0001868,53.2167,180.6708,64.6725,295.446,-3.0142e-05,-7.68e-06,0.0,0 STARLINK-5041,1 53891U 22119F   22358.76456005 -.00000768  00000-0 -30142-4 0  9991,2 53891  53.2167 180.6708 0001868  64.6725 295.4460 15.08836317 14495,6917.892,95.438,541.049,538.464,0.0
53891.0,STARLINK-5041,PAYLOAD,2022-12-24 19:56:21,15.08835409,0.0001854,53.2165,180.3734,64.3583,295.76,-3.7086e-05,-8.78e-06,0.0,0 STARLINK-5041,1 53891U 22119F   22358.83080091 -.00000878  00000-0 -37086-4 0  9993,2 53891  53.2165 180.3734 0001854  64.3583 295.7600 15.08835409 14921,6917.894,95.438,541.0419999999998,538.477,0.0
53891.0,STARLINK-5041,PAYLOAD,2022-12-25 11:50:12,15.08836078,0.0001879,53.217,177.4004,63.3013,296.8171,-7.990800000000001e-05,-1.56e-05,0.0,0 STARLINK-5041,1 53891U 22119F   22359.49320408 -.00001560  00000-0 -79908-4 0  9993,2 53891  53.2170 177.4004 0001879  63.3013 296.8171 15.08836078 15028,6917.892,95.438,541.057,538.4580000000002,0.0
53891.0,STARLINK-5041,PAYLOAD,2022-12-25 18:11:45,15.08838619,0.0001888,53.2168,176.2114,62.7964,297.3221,-5.4764e-05,-1.16e-05,0.0,0 STARLINK-5041,1 53891U 22119F   22359.75816160 -.00001160  00000-0 -54764-4 0  9996,2 53891  53.2168 176.2114 0001888  62.7964 297.3221 15.08838619 15061,6917.885,95.438,541.056,538.444,0.0
53891.0,STARLINK-5041,PAYLOAD,2022-12-25 21:22:31,15.08839654,0.0001978,53.217,175.6173,61.9163,298.2029,-4.1618e-05,-9.51e-06,0.0,0 STARLINK-5041,1 53891U 22119F   22359.89064074 -.00000951  00000-0 -41618-4 0  9991,2 53891  53.2170 175.6173 0001978  61.9163 298.2029 15.08839654 14665,6917.880999999999,95.438,541.115,538.378,0.0
53891.0,STARLINK-5041,PAYLOAD,2022-12-26 05:19:26,15.08840188,0.0001987,53.2171,174.1305,62.0206,298.0987,-3.3257e-05,-8.17e-06,0.0,0 STARLINK-5041,1 53891U 22119F   22360.22184013 -.00000817  00000-0 -33257-4 0  9997,2 53891  53.2171 174.1305 0001987  62.0206 298.0987 15.08840188 15135,6917.88,95.438,541.119,538.37,0.0
53891.0,STARLINK-5041,PAYLOAD,2022-12-26 21:13:18,15.0883773,0.0002038,53.2168,171.1574,61.0927,299.027,7.5553e-05,9.14e-06,0.0,0 STARLINK-5041,1 53891U 22119F   22360.88423778  .00000914  00000-0  75553-4 0  9994,2 53891  53.2168 171.1574 0002038  61.0927 299.0270 15.08837730 15239,6917.887,95.438,541.1619999999998,538.342,0.0
53891.0,STARLINK-5041,PAYLOAD,2022-12-27 05:10:13,15.08841927,0.0002053,53.2168,169.6706,61.7253,298.3946,9.1419e-05,1.167e-05,0.0,0 STARLINK-5041,1 53891U 22119F   22361.21543443  .00001167  00000-0  91419-4 0  9994,2 53891  53.2168 169.6706 0002053  61.7253 298.3946 15.08841927 14867,6917.874,95.437,541.16,538.319,0.0
53891.0,STARLINK-5041,PAYLOAD,2022-12-27 11:31:45,15.08845047,0.0002042,53.2167,168.4809,61.9581,298.1617,9.7542e-05,1.265e-05,0.0,0 STARLINK-5041,1 53891U 22119F   22361.48039152  .00001265  00000-0  97542-4 0  9992,2 53891  53.2167 168.4809 0002042  61.9581 298.1617 15.08845047 15323,6917.865,95.437,541.143,538.317,0.0
53891.0,STARLINK-5041,PAYLOAD,2022-12-27 17:53:18,15.08844217,0.0001953,53.2177,167.293,57.5239,302.5942,6.8914e-05,8.09e-06,0.0,0 STARLINK-5041,1 53891U 22119F   22361.74535173  .00000809  00000-0  68914-4 0  9999,2 53891  53.2177 167.2930 0001953  57.5239 302.5942 15.08844217 15360,6917.8669999999975,95.437,541.0840000000002,538.381,0.0
53891.0,STARLINK-5041,PAYLOAD,2022-12-28 20:54:52,15.08835939,0.0002435999999999,53.2178,162.236,56.0539,304.0684,-6.9597e-05,-1.396e-05,0.0,0 STARLINK-5041,1 53891U 22119F   22362.87144483 -.00001396  00000-0 -69597-4 0  9996,2 53891  53.2178 162.2360 0002436  56.0539 304.0684 15.08835939 15111,6917.893,95.438,541.443,538.073,0.0
53891.0,STARLINK-5041,PAYLOAD,2022-12-29 03:16:25,15.08833372,0.0002193,53.2174,161.047,58.8667,301.254,-8.2502e-05,-1.601e-05,0.0,0 STARLINK-5041,1 53891U 22119F   22363.13640652 -.00001601  00000-0 -82502-4 0  9995,2 53891  53.2174 161.0470 0002193  58.8667 301.2540 15.08833372 15577,6917.901,95.438,541.283,538.249,0.0
53891.0,STARLINK-5041,PAYLOAD,2022-12-29 19:10:16,15.08842172,0.0001932,53.2168,158.0733,59.4473,300.671,-7.2833e-05,-1.447e-05,0.0,0 STARLINK-5041,1 53891U 22119F   22363.79880073 -.00001447  00000-0 -72833-4 0  9994,2 53891  53.2168 158.0733 0001932  59.4473 300.6710 15.08842172 15255,6917.874,95.437,541.075,538.4019999999998,0.0
53891.0,STARLINK-5041,PAYLOAD,2022-12-30 11:04:07,15.08838915,0.0001881,53.2167,155.0995,58.8424,301.2752,0.00011916,1.609e-05,0.0,0 STARLINK-5041,1 53891U 22119F   22364.46119548  .00001609  00000-0  11916-3 0  9993,2 53891  53.2167 155.0995 0001881  58.8424 301.2752 15.08838915 15773,6917.884,95.438,541.05,538.447,0.0
53891.0,STARLINK-5041,PAYLOAD,2022-12-31 02:57:58,15.088359900000002,0.0001955999999999,53.2181,152.1268,60.4941,299.6246,9.1602e-05,1.17e-05,0.0,0 STARLINK-5041,1 53891U 22119F   22365.12359881  .00001170  00000-0  91602-4 0  9997,2 53891  53.2181 152.1268 0001956  60.4941 299.6246 15.08835990 15459,6917.893,95.438,541.111,538.405,0.0
53891.0,STARLINK-5041,PAYLOAD,2022-12-31 18:51:50,15.08841242,0.0001885,53.2174,149.1524,57.9236,302.1939,2.0793e-05,4.3e-07,0.0,0 STARLINK-5041,1 53891U 22119F   22365.78599694  .00000043  00000-0  20793-4 0  9998,2 53891  53.2174 149.1524 0001885  57.9236 302.1939 15.08841242 15974,6917.877,95.437,541.0459999999998,538.438,0.0
